{"type": "FeatureCollection", "features": [{"type": "Feature", "properties": {"district": 1}, "geometry": {"type": "Polygon", "coordinates": [[[-87.9344049996895, 42.153106000352295], [-87.92176200048881, 42.12423000009728], [-87.92700899963799, 42.12424799997761], [-87.9270820000016, 42.10432699997641], [-87.92223699997429, 42.10429000042243], [-87.92224800018452, 42.10247300016123], [-87.91738600008605, 42.10245099975092], [-87.91739500034474, 42.10064699992782], [-87.91587199981029, 42.10064499961736], [-87.9156909996729, 42.099732000282344], [-87.91305100033478, 42.095180000125346], [-87.92716799969816, 42.095237000437336], [-87.92714100026119, 42.086778000386545], [-87.92754600036169, 42.08576600024865], [-87.92532099981537, 42.08564400000213], [-87.92347299973645, 42.08578899960258], [-87.92346700056228, 42.08636200044215], [-87.92113999945033, 42.08635100003338], [-87.92101499989397, 42.08464599982281], [-87.91945700054085, 42.08225999969268], [-87.91942400014217, 42.080692999828], [-87.90771599989453, 42.08063899967316], [-87.90772700048703, 42.06610399959309], [-88.0070530000985, 42.06665000040603], [-88.00706399953106, 42.05794500043096], [-88.00280200044645, 42.05683400001605], [-88.00037099981068, 42.05593700020857], [-87.99884199986708, 42.05499299969539], [-87.99187099990097, 42.0499990001834], [-87.99372799972946, 42.05017499979277], [-87.9957149994822, 42.04605199983326], [-87.98063999999104, 42.03906200029396], [-87.97539700035084, 42.03639000036185], [-87.97154000006206, 42.03379699977352], [-87.97160900021194, 42.033227999559564], [-87.97110799994523, 42.03347599961766], [-87.96983799979941, 42.03253200001749], [-87.96984899991126, 42.03296400032153], [-87.96441400026205, 42.02891899963152], [-87.96416800021616, 42.028923999577735], [-87.96269400010735, 42.02786199971638], [-87.95994200035324, 42.02574499978997], [-87.9599350003362, 42.02516000025975], [-87.95475699954288, 42.021456000140134], [-87.95229199963549, 42.020483999638444], [-87.95001800044412, 42.019993999805614], [-87.95007400017376, 42.01986699986259], [-87.9419049995435, 42.01821399982201], [-87.94220600029836, 42.01738200018519], [-87.94154200040894, 42.016771999860374], [-87.94081700028781, 42.01678100032755], [-87.94069900037971, 42.01545000036976], [-87.94043300055037, 42.01544600028667], [-87.94025200056156, 42.00830500018407], [-87.93830200034232, 42.00811799977466], [-87.93356099986566, 42.008180000368114], [-87.9335059998793, 42.0055829996781], [-87.93052400001604, 42.005057000125944], [-87.93015800017676, 42.004835000344464], [-87.92941800012154, 42.004854000422526], [-87.92544799970601, 42.00726899974609], [-87.92280000000903, 42.00613500039335], [-87.92083799991387, 42.00394500011536], [-87.92050500037814, 42.00507699991784], [-87.91374000000717, 42.00511399962371], [-87.91377299941861, 42.008701000275344], [-87.91291500034664, 42.00872999996142], [-87.91296000014472, 42.00616299980568], [-87.91256599999154, 42.00612899960082], [-87.91266600045269, 42.005128999988244], [-87.90785600017084, 42.00524400015126], [-87.90771400058533, 42.008919000291776], [-87.90482500015291, 42.0090169995984], [-87.89972299940014, 42.007652999900536], [-87.8996260003089, 42.00720000040925], [-87.8979720004444, 42.00664600033593], [-87.89638099967863, 42.005758000169614], [-87.89638599970554, 42.00535699988349], [-87.89593200017391, 42.00535000035101], [-87.89591800008085, 42.00588800033411], [-87.89545100017287, 42.0056630004068], [-87.89468200058737, 42.00568700033237], [-87.89407099952183, 42.00541200035822], [-87.89412099952182, 42.00222899959201], [-87.89604400042005, 42.002269999851606], [-87.89597000032948, 42.00003400039993], [-87.89286699979128, 41.99985599970634], [-87.88907600011478, 41.999238000372365], [-87.88453100012204, 41.998222999864026], [-87.88461000016864, 41.994291999932514], [-87.88413300035381, 41.99282099958572], [-87.88306300025498, 41.99159299999895], [-87.88013699973058, 41.98965400006237], [-87.87958600052905, 41.988977000002826], [-87.87911000053538, 41.98784099984747], [-87.87882399976284, 41.98553600033992], [-87.87911300033069, 41.979754999988884], [-87.87906599998226, 41.977946000220406], [-87.87868999991336, 41.97578999961516], [-87.87787399969825, 41.97303900038588], [-87.88087800020317, 41.973081999590285], [-87.88072599998509, 41.96047899981515], [-87.88324199973361, 41.95852999996051], [-87.88429700021429, 41.95752599978069], [-87.88533899945106, 41.955942999686606], [-87.88562300051525, 41.95491600008411], [-87.88565200035853, 41.95051100021222], [-87.88534700052763, 41.94500299981204], [-87.8864940001, 41.943755999555975], [-87.88527400048511, 41.943655000210136], [-87.88526199993726, 41.94339700022265], [-87.88557799989043, 41.943410000355634], [-87.88565499977538, 41.943275000074536], [-87.88563200025263, 41.94263799990472], [-87.88521300002951, 41.94231300009874], [-87.88468099954498, 41.93028000033349], [-87.86619499953596, 41.92973399977928], [-87.86019199996342, 41.92928799978942], [-87.85996900021033, 41.924533999998445], [-87.86007899944363, 41.922129999784], [-87.85988100046015, 41.92141100016497], [-87.85972800024985, 41.91708300002144], [-87.86023000009769, 41.91567800011868], [-87.86073300006132, 41.915178000107666], [-87.85483499955906, 41.91530299973292], [-87.85497200013543, 41.918998000227894], [-87.85190700056738, 41.91905599957229], [-87.85249299955441, 41.919596000113444], [-87.85260900026174, 41.92249899988392], [-87.85206100033042, 41.92305999970606], [-87.85225500001462, 41.92919499982781], [-87.84815699979659, 41.92921200040293], [-87.8454629998987, 41.92967600000992], [-87.84293500042816, 41.925830999898295], [-87.84111799968953, 41.92339999999967], [-87.8373699996334, 41.920243999765376], [-87.83534799968659, 41.91891300036444], [-87.8357690003946, 41.92863599956759], [-87.83084099985209, 41.927864999886104], [-87.8308559995922, 41.929524999656145], [-87.82163299953247, 41.92700399963576], [-87.81608700025227, 41.92522600034495], [-87.81628499967752, 41.925578000030875], [-87.80625499994201, 41.9240069996139], [-87.80642900006342, 41.928939999635084], [-87.80339199950573, 41.928975000365774], [-87.80344700044115, 41.930788999684765], [-87.80282600034752, 41.93079700010439], [-87.80280000018425, 41.93033199971805], [-87.80096300020648, 41.930356000134466], [-87.8009940002007, 41.93127200041825], [-87.79670599964156, 41.93132700014044], [-87.79663399978176, 41.929048000400485], [-87.79321600048402, 41.929086999803765], [-87.79297399958315, 41.929091999670874], [-87.79302800004297, 41.93091299990934], [-87.79063799984277, 41.930941999638605], [-87.79053100048415, 41.92723899985768], [-87.78935400015527, 41.927135999886005], [-87.78558300001464, 41.92733899967549], [-87.78568900042742, 41.93100199970713], [-87.78447399974196, 41.93101900013964], [-87.78459200020498, 41.93467699986479], [-87.78094999961573, 41.934728000443194], [-87.78101099972628, 41.93655499985442], [-87.77767099948721, 41.93660300000577], [-87.7761509999464, 41.93662299956176], [-87.77608900052293, 41.93479499983397], [-87.7688010004725, 41.934895000102195], [-87.76892999940482, 41.93854400013437], [-87.76526799950388, 41.938590000192015], [-87.76514500013728, 41.93494500009054], [-87.76146499973116, 41.93498900017631], [-87.76143300022966, 41.93407800035472], [-87.75652099982788, 41.93413899961907], [-87.75660700006553, 41.93641999985705], [-87.75443500030003, 41.93644900013801], [-87.7541549994544, 41.93644899978738], [-87.75404899977818, 41.93371799983093], [-87.75159500055557, 41.9337480002384], [-87.7516130000863, 41.934205000313895], [-87.74670300045187, 41.93426699956136], [-87.74674100042616, 41.93518099955749], [-87.74487300016709, 41.935206999665596], [-87.74494799953551, 41.93703000017344], [-87.742097999975, 41.937070000240574], [-87.74215399991088, 41.93889099984794], [-87.73826499973833, 41.93894500013208], [-87.73814599977014, 41.93529600007088], [-87.73397200017023, 41.93537899967449], [-87.73322800010534, 41.935124999868556], [-87.73334900016003, 41.93535999992236], [-87.73261999972961, 41.93536099957945], [-87.73275699954837, 41.935822000199856], [-87.72769800010131, 41.935893999693825], [-87.72769000006062, 41.93543400043288], [-87.72708000032053, 41.935430999954605], [-87.72718500034148, 41.93909500016244], [-87.72352000053735, 41.939138999927685], [-87.72357299988822, 41.94096199998251], [-87.7223469995413, 41.940976000093805], [-87.72240199947713, 41.94279799964208], [-87.71995700045015, 41.94282899987403], [-87.71990399949512, 41.941005999761124], [-87.71745600007104, 41.94103800039089], [-87.71721300030019, 41.93282799982097], [-87.7159950003072, 41.93283800027663], [-87.7160099999662, 41.933285999719565], [-87.71534099948238, 41.93331900035081], [-87.7150830000799, 41.933159999883074], [-87.715063999852, 41.9328499999606], [-87.71456600034846, 41.93286099965469], [-87.71436599940725, 41.93271500031777], [-87.71435800028566, 41.93240500014171], [-87.71367199963599, 41.93230599959613], [-87.71364699967118, 41.9319550000259], [-87.7141460001336, 41.93194900025657], [-87.71413700022758, 41.93149700024348], [-87.71289799959551, 41.931512000033145], [-87.71290500010939, 41.92830699993548], [-87.71464400049261, 41.92828599979251], [-87.71465900037758, 41.92876200015476], [-87.71710299973022, 41.92871100034308], [-87.71693900058236, 41.922773999723105], [-87.7175489994127, 41.92276699987978], [-87.71759199987035, 41.92409300044611], [-87.71820499991905, 41.92408800026957], [-87.71816300055893, 41.92276000023128], [-87.71938499985296, 41.92274299958282], [-87.71933000045635, 41.92091300013157], [-87.71688500051256, 41.9209429997919], [-87.71685600029211, 41.92002899962599], [-87.71523799946826, 41.92004800019932], [-87.71525199972473, 41.92050499959878], [-87.71361000033096, 41.92052499955755], [-87.71356300001307, 41.91914999962889], [-87.7168280000674, 41.9191139999036], [-87.71675500018117, 41.916760000293095], [-87.71513899979918, 41.9167780001551], [-87.71504400001999, 41.913703999656775], [-87.71666000001828, 41.91368700039192], [-87.71656999962616, 41.910761999692525], [-87.71677699974421, 41.909419999645124], [-87.71669800048747, 41.90682200019084], [-87.71425499942066, 41.90684500024933], [-87.7141780005634, 41.90458599969761], [-87.71630699978043, 41.904565000323274], [-87.71779500011044, 41.906361999634285], [-87.72020199985319, 41.90995399977673], [-87.7204510003028, 41.909945999758335], [-87.72033499999226, 41.90633400043551], [-87.71911499990851, 41.906346999637385], [-87.71905600016426, 41.9045899999458], [-87.71977199987337, 41.90352299956898], [-87.72147799956122, 41.90420600029806], [-87.72144600006571, 41.90317400042064], [-87.7220480001868, 41.90315899999971], [-87.72387799968413, 41.90314700014502], [-87.72392299966953, 41.90445700018211], [-87.7257449997798, 41.904445999571614], [-87.72576400028457, 41.9053560001184], [-87.7263929998247, 41.905629000282374], [-87.72640799963138, 41.906155999839136], [-87.7355020000695, 41.90975900011307], [-87.74138100038469, 41.909676000396296], [-87.74165699985254, 41.90775399994362], [-87.74161200059353, 41.906050000104166], [-87.74603600018713, 41.90598799981416], [-87.74850199964473, 41.90596100043732], [-87.74854200005, 41.90776200004383], [-87.7509950001049, 41.907743000266855], [-87.75103499969742, 41.909563000171296], [-87.75579599989116, 41.90950100009739], [-87.75592600049106, 41.908999999782495], [-87.75590200027295, 41.90768599993312], [-87.76087499965129, 41.907624999875296], [-87.76082000020963, 41.905814999751655], [-87.76206399947712, 41.9058020000155], [-87.7621200004303, 41.90761000041852], [-87.76336299945362, 41.907596000310306], [-87.76341999990599, 41.90940400002421], [-87.80802600049108, 41.90889600014995], [-87.82451099943539, 41.90856199981581], [-87.82479799966123, 41.907700000378725], [-87.82602400008521, 41.90670099973698], [-87.82785099994382, 41.905767000381935], [-87.83075500046417, 41.90479900012482], [-87.8323709999109, 41.903586000343786], [-87.83349599945618, 41.9015540000779], [-87.83420399953381, 41.898624000098835], [-87.83964300026956, 41.89833099964354], [-87.84459299952954, 41.89838999970665], [-87.84423600049716, 41.888953999843025], [-87.86394900026245, 41.89115500007347], [-87.86401299991549, 41.89292299985021], [-87.87848499955166, 41.8927440002432], [-87.88351800004776, 41.892406999851175], [-87.89304000021131, 41.89247999983049], [-87.8955109995582, 41.89265100021109], [-87.89846599988749, 41.8925089997234], [-87.89856300059921, 41.889146999708025], [-87.89574000025708, 41.88908999975286], [-87.89559099947645, 41.88638600023899], [-87.89620400022513, 41.886363000423664], [-87.89617699951876, 41.88537599988864], [-87.89678699976973, 41.885364000336594], [-87.89926600042041, 41.883320999949106], [-87.89937099983923, 41.88312200016396], [-87.89912900006078, 41.88097100014023], [-87.8929439999041, 41.880383999671224], [-87.89292000025348, 41.8775709999154], [-87.88311500047705, 41.87786100044236], [-87.88282500006443, 41.87088599971595], [-87.87787600021575, 41.870700000304964], [-87.86646800042426, 41.871088000447756], [-87.86588500026, 41.85640600040434], [-87.86252800000307, 41.85649699984271], [-87.86260000048969, 41.85816199984292], [-87.86068399971423, 41.856774000049455], [-87.86067500013893, 41.85538500027942], [-87.86039499941312, 41.8541440003099], [-87.8600419996149, 41.853633000231326], [-87.85705299950017, 41.8528770003944], [-87.85669600023591, 41.85116499982512], [-87.85496899993922, 41.85121299964483], [-87.8548880001625, 41.8493819996141], [-87.80379200028594, 41.85036899979783], [-87.80419900059374, 41.864979999919576], [-87.73993200018056, 41.865960000052205], [-87.73963900053285, 41.85503099955792], [-87.73942300018062, 41.851351000399745], [-87.73923200020513, 41.85135199964151], [-87.72336200016832, 41.851640999736844], [-87.71988900001149, 41.85287400038619], [-87.72004799961813, 41.85883500010251], [-87.72125500050088, 41.85890700035509], [-87.7213559994048, 41.860738000090585], [-87.71769699960086, 41.86077900013872], [-87.717750000146, 41.86254599970419], [-87.70799599962416, 41.86254899972597], [-87.70810199993429, 41.86637899987646], [-87.70444599986351, 41.86642200018042], [-87.70439099965567, 41.86458799958357], [-87.70336200035486, 41.864596000047925], [-87.70310599993839, 41.86459900000966], [-87.7031629995829, 41.86642999958835], [-87.69044499997763, 41.86656799988846], [-87.68890000010755, 41.86423899988574], [-87.68817099995594, 41.863873999576214], [-87.68598399953014, 41.86463800033995], [-87.68603800043732, 41.86661299988803], [-87.64218800037382, 41.86722000028651], [-87.6422220004883, 41.868173999887006], [-87.6407520003268, 41.86819499969563], [-87.64072200055595, 41.867241000412676], [-87.63043700014018, 41.86743199972073], [-87.63006799972696, 41.8529409995912], [-87.63026699953592, 41.852939000117466], [-87.63010900001247, 41.85211199990699], [-87.62978400001388, 41.8382799997145], [-87.64627799940482, 41.83804599998221], [-87.64592800025014, 41.823458999778246], [-87.65078700045127, 41.823392999635566], [-87.65082700051695, 41.82526000027888], [-87.65503800009442, 41.825195999770756], [-87.65559299961133, 41.82485099995158], [-87.65559099968249, 41.824241000446946], [-87.65597500013322, 41.82357499994985], [-87.65590199978354, 41.82314200002122], [-87.65553400048974, 41.82268500030062], [-87.65552100021452, 41.82185499997733], [-87.65578400026023, 41.821240000052], [-87.65586999941473, 41.82009799989346], [-87.65540599966853, 41.81859299991182], [-87.65537799966248, 41.81723100042717], [-87.66115199958388, 41.817158000193004], [-87.6611430001089, 41.818403000184034], [-87.66520000015247, 41.81822699990649], [-87.66506400046373, 41.81222200001333], [-87.65524599952582, 41.81237000036372], [-87.65515000015606, 41.804836999748495], [-87.6624369999222, 41.80477500021535], [-87.66244299939467, 41.804995000427006], [-87.66486699959587, 41.804963999771545], [-87.66497300027294, 41.80860399973585], [-87.66739500007455, 41.80858199995627], [-87.66735299966332, 41.80675900025249], [-87.6683219999841, 41.80674799983424], [-87.6746410001532, 41.806686000086536], [-87.67468699972405, 41.808509999965494], [-87.67948999963157, 41.808459000207534], [-87.67901499988999, 41.80482499988121], [-87.67947499957164, 41.80462500006841], [-87.67945200030834, 41.803733000003206], [-87.67937599946993, 41.803009999627534], [-87.67909700011936, 41.80299800020318], [-87.67910699957248, 41.80255299986695], [-87.67696799989704, 41.80257199971841], [-87.67697900050312, 41.803030999682235], [-87.67637099962008, 41.80303499976435], [-87.67634000028956, 41.801665999896095], [-87.67512500001058, 41.80168399968233], [-87.675116999862, 41.80122599983239], [-87.67964100023985, 41.801167999911016], [-87.67960499952288, 41.79885700002766], [-87.68360299968619, 41.798826999692956], [-87.68347800030325, 41.793853000105344], [-87.68404199974023, 41.793877000031344], [-87.6839380004001, 41.79021300030987], [-87.68125299981111, 41.79024299966409], [-87.68124299941985, 41.792042000324855], [-87.6801429995716, 41.79204299982947], [-87.67997000056324, 41.78282900028416], [-87.68374199942595, 41.78291099990383], [-87.68349400038197, 41.77378299981927], [-87.68471300019782, 41.77377800012886], [-87.68466400020546, 41.77195799972446], [-87.68710900008763, 41.77191900040614], [-87.6872089999079, 41.77556200010162], [-87.68964299959815, 41.77547899996212], [-87.68959300005454, 41.77367999994408], [-87.69081700009343, 41.77366099984027], [-87.69076899990704, 41.77186200010193], [-87.69216300048743, 41.771835000228364], [-87.6980829996062, 41.77174900031227], [-87.69817099993443, 41.77540000042489], [-87.70305200008166, 41.77532200017417], [-87.70303100013105, 41.77441900035521], [-87.70496600004289, 41.77438699960771], [-87.70545099957397, 41.7743800003294], [-87.70546600001902, 41.7752849999808], [-87.71281100035868, 41.77516699989318], [-87.71232300041427, 41.75690700024433], [-87.72219100016673, 41.75683800011305], [-87.72235499971646, 41.76409999962337], [-87.72340600039335, 41.764216999894835], [-87.74189399994154, 41.76410499981931], [-87.74093799986217, 41.73705699988631], [-87.74106700054034, 41.73452399992789], [-87.67309000030563, 41.735649999701224], [-87.66821600014728, 41.73017699979551], [-87.66743599999224, 41.72845099959944], [-87.66571699969984, 41.725612999571226], [-87.66345199976297, 41.72120099963244], [-87.66302900023712, 41.71838699984408], [-87.65976400058243, 41.71400400019422], [-87.6615929994232, 41.71398300003831], [-87.65723599998957, 41.70353600000354], [-87.6593219998036, 41.697844000418854], [-87.66407200026013, 41.69104899959039], [-87.66658900014143, 41.686698000226066], [-87.67016399970672, 41.68784000017884], [-87.67143200033922, 41.68791900039168], [-87.6718339994521, 41.6846270003904], [-87.67305300002948, 41.68460500035832], [-87.67371300050819, 41.6791730003513], [-87.67301600051302, 41.67912299965297], [-87.67322900012412, 41.67732199963339], [-87.68636300033619, 41.677205000153364], [-87.68576000048229, 41.678618999965714], [-87.68566300026991, 41.679491000081754], [-87.6858640004948, 41.684474999899486], [-87.6956260002938, 41.68433699979665], [-87.69571699991747, 41.68803200043259], [-87.69947299968925, 41.687933000423804], [-87.69939799995822, 41.68614899978258], [-87.70062400028448, 41.6861340002221], [-87.7005529995426, 41.68426299987783], [-87.70541699947543, 41.68418700031249], [-87.70528500025715, 41.68057900008402], [-87.71136000039319, 41.68043799990928], [-87.71139000019464, 41.681268000016615], [-87.71157599951893, 41.68135600044709], [-87.71159899987185, 41.68180299973842], [-87.7113259995023, 41.68180799982589], [-87.71151600057122, 41.6840929996909], [-87.7540520001765, 41.68333999969783], [-87.75405799969374, 41.68348300023062], [-87.75914100024994, 41.683380999684104], [-87.75937399940537, 41.69041500014888], [-87.75920500002496, 41.69041799969443], [-87.75951299967377, 41.69790000002015], [-87.7607409999155, 41.697887000270285], [-87.76065399945095, 41.69655099997498], [-87.7686950005309, 41.700896000324725], [-87.76871399986136, 41.6977920000513], [-87.76930499964607, 41.69779099995446], [-87.76928799973888, 41.697351000414976], [-87.76868299947093, 41.69735000034441], [-87.76857900011495, 41.694621000164354], [-87.76918300037424, 41.69460799955887], [-87.76916599979187, 41.694127000418035], [-87.77161300005473, 41.694102999919124], [-87.77147599948343, 41.69035800032463], [-87.77344400007206, 41.690346999818104], [-87.77316599956694, 41.68304899963992], [-87.778571999427, 41.6829709997819], [-87.77807200033735, 41.671851999932876], [-87.77657900034373, 41.67132500035319], [-87.77394900007394, 41.66921200003721], [-87.77371900014235, 41.66859300005514], [-87.77793299944311, 41.66843299985533], [-87.77701699983523, 41.64652099969515], [-87.81508499949992, 41.64578600024569], [-87.81503800040842, 41.648231000256345], [-87.81535699958604, 41.65310199988926], [-87.80987499966753, 41.6532140001964], [-87.80990400033258, 41.653978000341624], [-87.81117000019897, 41.653935999749], [-87.81120300050736, 41.654932999698254], [-87.81415600030785, 41.65494800026474], [-87.81415699982642, 41.65653600013914], [-87.81549499978227, 41.65643799990748], [-87.81552100052758, 41.65718399971378], [-87.81037899984786, 41.65717700039344], [-87.81062899945975, 41.66046999965713], [-87.81385000053906, 41.660394999642875], [-87.8138780005347, 41.66157500037821], [-87.81471699963289, 41.66155299958023], [-87.81468099949258, 41.66037799964157], [-87.81729999948352, 41.66032099981696], [-87.8172879995754, 41.659866000164506], [-87.81877899949423, 41.65981800019194], [-87.81879600031832, 41.66028499982292], [-87.82908400054518, 41.660121000117634], [-87.83488699951032, 41.654235999699544], [-87.8348810000641, 41.653437999813214], [-87.83467700004385, 41.65328500036493], [-87.83458999955111, 41.65270000015206], [-87.83678300019665, 41.65265399988361], [-87.83489200052095, 41.65460899992329], [-87.83504299940141, 41.660033000388864], [-87.83732900030179, 41.65994700040954], [-87.8409040003015, 41.65255799986012], [-87.85407599953322, 41.65228100042479], [-87.85450600030605, 41.65949000019844], [-87.85479100018546, 41.670546000230246], [-87.84991200055676, 41.67057299995389], [-87.8500279998582, 41.67420799998394], [-87.83616399962442, 41.674491000064826], [-87.83618200039534, 41.67517699980184], [-87.83549799954056, 41.67519400039731], [-87.83547799960974, 41.674504999953655], [-87.83070799946324, 41.6746049998835], [-87.83110299981323, 41.68312100019207], [-87.83636700016444, 41.68404400019649], [-87.846379999883, 41.68501500029576], [-87.84554099972081, 41.68907799961218], [-87.84549699954952, 41.691645000313315], [-87.84589899968005, 41.693353999784776], [-87.84600500040544, 41.69614599975673], [-87.87317699988277, 41.69558500008326], [-87.87534700020382, 41.69581499992336], [-87.87911200057503, 41.69672699968317], [-87.88190899993822, 41.697135999922295], [-87.89800999986464, 41.69792199990095], [-87.90075800000811, 41.69777900042027], [-87.91373400040663, 41.696428000245085], [-87.91436100017873, 41.711614000272746], [-87.91424749218086, 41.716598216828196], [-87.91694100017573, 41.78771199995241], [-87.91908099966342, 41.83601399969617], [-87.91951779076223, 41.842650456434875], [-87.91921299987382, 41.8472279999934], [-87.91939500024732, 41.854038999879755], [-87.92037528797198, 41.86309094000805], [-87.92060200009881, 41.892072000102516], [-87.92047510234035, 41.89592259148827], [-87.92009152090945, 41.979079380884826], [-87.92036502319088, 41.9938872481931], [-87.97958000060365, 41.99287099976699], [-88.01549473478809, 41.992460918363406], [-88.0314485412463, 41.992527474121964], [-88.0492450002447, 41.99185799970823], [-88.05106600034243, 41.99191700028908], [-88.06102352665405, 41.99141429386823], [-88.14574404906504, 41.988222208713644], [-88.16910236325442, 41.987731412193696], [-88.20338563632376, 41.987449539016886], [-88.26287542653793, 41.98644380223157], [-88.26364100027165, 42.066873000130165], [-88.23818600022506, 42.06698500044202], [-88.23834399963462, 42.10314939039313], [-88.2382915691384, 42.14196682174947], [-88.23844896059352, 42.15424900165872], [-88.12121131135463, 42.154177666012934], [-88.0239985851585, 42.153674988750446], [-87.96385441940313, 42.153565338618584], [-87.95161200042772, 42.15346099980385], [-87.94884500022847, 42.15318200007032], [-87.9344049996895, 42.153106000352295]]]}}, {"type": "Feature", "properties": {"district": 2}, "geometry": {"type": "Polygon", "coordinates": [[[-87.61631400009726, 41.89676899965611], [-87.62424299997474, 41.89673400030968], [-87.62410300013485, 41.89838599969199], [-87.626367999672, 41.89835500011361], [-87.62561399978698, 41.896711999622234], [-87.62684999949667, 41.89669499977556], [-87.62678500014131, 41.89409500012633], [-87.63413300055103, 41.89398899986243], [-87.63379800006764, 41.88065999995561], [-87.6484920004408, 41.88047199959926], [-87.64853099985284, 41.88176199979157], [-87.65669000029018, 41.88165899972379], [-87.65683700005847, 41.88667600012188], [-87.66701199986191, 41.886507000140966], [-87.66702500037346, 41.88693799995987], [-87.68657899965521, 41.886628999918855], [-87.68662400032326, 41.888409999673065], [-87.69676399948119, 41.88830899988625], [-87.69658599964112, 41.88943799963214], [-87.69649899994685, 41.89231500040266], [-87.69667099972519, 41.89433300039586], [-87.69166800055504, 41.89233200033635], [-87.69174500010452, 41.894775000420196], [-87.68928000013557, 41.894800000141196], [-87.6893070001451, 41.89571600004275], [-87.69177300014522, 41.89570200032424], [-87.691817999908, 41.897513000153836], [-87.69428200018167, 41.89748600030775], [-87.6943490004289, 41.90021900034998], [-87.696814999877, 41.90019899987424], [-87.69687899978722, 41.902925000359105], [-87.69813199959108, 41.90291500024942], [-87.69825300022563, 41.90338499960036], [-87.69771800053117, 41.90372499989073], [-87.69747499967252, 41.904289999597815], [-87.69789899944712, 41.905650000370166], [-87.6974350005373, 41.90808299982274], [-87.6975779996974, 41.90880599993252], [-87.697940999518, 41.90926000004061], [-87.69852099976772, 41.909550999843546], [-87.69919099981472, 41.90963899956421], [-87.70172599964542, 41.90923100022567], [-87.70186599950551, 41.91017199957098], [-87.70336899993187, 41.91017700038114], [-87.70339099987999, 41.91066399999317], [-87.7045309997779, 41.91064900038536], [-87.7045329999927, 41.913852999683996], [-87.71504400001999, 41.913703999656775], [-87.71513899979918, 41.9167780001551], [-87.71675500018117, 41.916760000293095], [-87.7168280000674, 41.9191139999036], [-87.71356300001307, 41.91914999962889], [-87.71361000033096, 41.92052499955755], [-87.71525199972473, 41.92050499959878], [-87.71523799946826, 41.92004800019932], [-87.71685600029211, 41.92002899962599], [-87.71688500051256, 41.9209429997919], [-87.71933000045635, 41.92091300013157], [-87.71938499985296, 41.92274299958282], [-87.71816300055893, 41.92276000023128], [-87.71820499991905, 41.92408800026957], [-87.71759199987035, 41.92409300044611], [-87.7175489994127, 41.92276699987978], [-87.71693900058236, 41.922773999723105], [-87.71710299973022, 41.92871100034308], [-87.71465900037758, 41.92876200015476], [-87.71464400049261, 41.92828599979251], [-87.71290500010939, 41.92830699993548], [-87.71289799959551, 41.931512000033145], [-87.71413700022758, 41.93149700024348], [-87.7141460001336, 41.93194900025657], [-87.71364699967118, 41.9319550000259], [-87.71367199963599, 41.93230599959613], [-87.71435800028566, 41.93240500014171], [-87.71436599940725, 41.93271500031777], [-87.71456600034846, 41.93286099965469], [-87.715063999852, 41.9328499999606], [-87.7150830000799, 41.933159999883074], [-87.71534099948238, 41.93331900035081], [-87.7160099999662, 41.933285999719565], [-87.7159950003072, 41.93283800027663], [-87.71721300030019, 41.93282799982097], [-87.71745600007104, 41.94103800039089], [-87.71990399949512, 41.941005999761124], [-87.71995700045015, 41.94282899987403], [-87.72240199947713, 41.94279799964208], [-87.7223469995413, 41.940976000093805], [-87.72357299988822, 41.94096199998251], [-87.72352000053735, 41.939138999927685], [-87.72718500034148, 41.93909500016244], [-87.72708000032053, 41.935430999954605], [-87.72769000006062, 41.93543400043288], [-87.72769800010131, 41.935893999693825], [-87.73275699954837, 41.935822000199856], [-87.73261999972961, 41.93536099957945], [-87.73334900016003, 41.93535999992236], [-87.73322800010534, 41.935124999868556], [-87.73397200017023, 41.93537899967449], [-87.73814599977014, 41.93529600007088], [-87.73826499973833, 41.93894500013208], [-87.74215399991088, 41.93889099984794], [-87.742097999975, 41.937070000240574], [-87.74494799953551, 41.93703000017344], [-87.74487300016709, 41.935206999665596], [-87.74674100042616, 41.93518099955749], [-87.74670300045187, 41.93426699956136], [-87.7516130000863, 41.934205000313895], [-87.75159500055557, 41.9337480002384], [-87.75404899977818, 41.93371799983093], [-87.7541549994544, 41.93644899978738], [-87.75660700006553, 41.93641999985705], [-87.75652099982788, 41.93413899961907], [-87.76143300022966, 41.93407800035472], [-87.76146499973116, 41.93498900017631], [-87.76514500013728, 41.93494500009054], [-87.76526799950388, 41.938590000192015], [-87.76892999940482, 41.93854400013437], [-87.7688010004725, 41.934895000102195], [-87.77608900052293, 41.93479499983397], [-87.7761509999464, 41.93662299956176], [-87.78101099972628, 41.93655499985442], [-87.78094999961573, 41.934728000443194], [-87.78459200020498, 41.93467699986479], [-87.78447399974196, 41.93101900013964], [-87.78568900042742, 41.93100199970713], [-87.78558300001464, 41.92733899967549], [-87.78935400015527, 41.927135999886005], [-87.79053100048415, 41.92723899985768], [-87.79063799984277, 41.930941999638605], [-87.79302800004297, 41.93091299990934], [-87.79297399958315, 41.929091999670874], [-87.79663399978176, 41.929048000400485], [-87.79670599964156, 41.93132700014044], [-87.8009940002007, 41.93127200041825], [-87.80096300020648, 41.930356000134466], [-87.80280000018425, 41.93033199971805], [-87.80282600034752, 41.93079700010439], [-87.80344700044115, 41.930788999684765], [-87.80339199950573, 41.928975000365774], [-87.80642900006342, 41.928939999635084], [-87.80625499994201, 41.9240069996139], [-87.81628499967752, 41.925578000030875], [-87.81608700025227, 41.92522600034495], [-87.82163299953247, 41.92700399963576], [-87.8308559995922, 41.929524999656145], [-87.83084099985209, 41.927864999886104], [-87.8357690003946, 41.92863599956759], [-87.83534799968659, 41.91891300036444], [-87.8373699996334, 41.920243999765376], [-87.84111799968953, 41.92339999999967], [-87.84293500042816, 41.925830999898295], [-87.8454629998987, 41.92967600000992], [-87.84815699979659, 41.92921200040293], [-87.85225500001462, 41.92919499982781], [-87.85206100033042, 41.92305999970606], [-87.85260900026174, 41.92249899988392], [-87.85249299955441, 41.919596000113444], [-87.85190700056738, 41.91905599957229], [-87.85497200013543, 41.918998000227894], [-87.85483499955906, 41.91530299973292], [-87.86073300006132, 41.915178000107666], [-87.86023000009769, 41.91567800011868], [-87.85972800024985, 41.91708300002144], [-87.85988100046015, 41.92141100016497], [-87.86007899944363, 41.922129999784], [-87.85996900021033, 41.924533999998445], [-87.86019199996342, 41.92928799978942], [-87.86619499953596, 41.92973399977928], [-87.88468099954498, 41.93028000033349], [-87.88521300002951, 41.94231300009874], [-87.88563200025263, 41.94263799990472], [-87.88565499977538, 41.943275000074536], [-87.88557799989043, 41.943410000355634], [-87.88526199993726, 41.94339700022265], [-87.88527400048511, 41.943655000210136], [-87.8864940001, 41.943755999555975], [-87.88534700052763, 41.94500299981204], [-87.88565200035853, 41.95051100021222], [-87.88562300051525, 41.95491600008411], [-87.88533899945106, 41.955942999686606], [-87.88429700021429, 41.95752599978069], [-87.88324199973361, 41.95852999996051], [-87.88072599998509, 41.96047899981515], [-87.88087800020317, 41.973081999590285], [-87.87787399969825, 41.97303900038588], [-87.87868999991336, 41.97578999961516], [-87.87906599998226, 41.977946000220406], [-87.87911300033069, 41.979754999988884], [-87.87882399976284, 41.98553600033992], [-87.87911000053538, 41.98784099984747], [-87.87958600052905, 41.988977000002826], [-87.88013699973058, 41.98965400006237], [-87.88306300025498, 41.99159299999895], [-87.88413300035381, 41.99282099958572], [-87.88461000016864, 41.994291999932514], [-87.88453100012204, 41.998222999864026], [-87.88907600011478, 41.999238000372365], [-87.89286699979128, 41.99985599970634], [-87.89597000032948, 42.00003400039993], [-87.89604400042005, 42.002269999851606], [-87.89412099952182, 42.00222899959201], [-87.89407099952183, 42.00541200035822], [-87.89468200058737, 42.00568700033237], [-87.89545100017287, 42.0056630004068], [-87.89591800008085, 42.00588800033411], [-87.89593200017391, 42.00535000035101], [-87.89638599970554, 42.00535699988349], [-87.89638099967863, 42.005758000169614], [-87.8979720004444, 42.00664600033593], [-87.8996260003089, 42.00720000040925], [-87.89972299940014, 42.007652999900536], [-87.90482500015291, 42.0090169995984], [-87.90771400058533, 42.008919000291776], [-87.90785600017084, 42.00524400015126], [-87.91266600045269, 42.005128999988244], [-87.91256599999154, 42.00612899960082], [-87.91296000014472, 42.00616299980568], [-87.91291500034664, 42.00872999996142], [-87.91377299941861, 42.008701000275344], [-87.91374000000717, 42.00511399962371], [-87.92050500037814, 42.00507699991784], [-87.92083799991387, 42.00394500011536], [-87.92280000000903, 42.00613500039335], [-87.92544799970601, 42.00726899974609], [-87.92941800012154, 42.004854000422526], [-87.93015800017676, 42.004835000344464], [-87.93052400001604, 42.005057000125944], [-87.9335059998793, 42.0055829996781], [-87.93356099986566, 42.008180000368114], [-87.93830200034232, 42.00811799977466], [-87.94025200056156, 42.00830500018407], [-87.94043300055037, 42.01544600028667], [-87.94069900037971, 42.01545000036976], [-87.94081700028781, 42.01678100032755], [-87.94154200040894, 42.016771999860374], [-87.94220600029836, 42.01738200018519], [-87.9419049995435, 42.01821399982201], [-87.95007400017376, 42.01986699986259], [-87.95001800044412, 42.019993999805614], [-87.95229199963549, 42.020483999638444], [-87.95475699954288, 42.021456000140134], [-87.9599350003362, 42.02516000025975], [-87.95994200035324, 42.02574499978997], [-87.96269400010735, 42.02786199971638], [-87.96416800021616, 42.028923999577735], [-87.96441400026205, 42.02891899963152], [-87.96984899991126, 42.03296400032153], [-87.96983799979941, 42.03253200001749], [-87.97110799994523, 42.03347599961766], [-87.97160900021194, 42.033227999559564], [-87.97154000006206, 42.03379699977352], [-87.97539700035084, 42.03639000036185], [-87.98063999999104, 42.03906200029396], [-87.9957149994822, 42.04605199983326], [-87.99372799972946, 42.05017499979277], [-87.99187099990097, 42.0499990001834], [-87.99884199986708, 42.05499299969539], [-88.00037099981068, 42.05593700020857], [-88.00280200044645, 42.05683400001605], [-88.00706399953106, 42.05794500043096], [-88.0070530000985, 42.06665000040603], [-87.90772700048703, 42.06610399959309], [-87.90771599989453, 42.08063899967316], [-87.91942400014217, 42.080692999828], [-87.91945700054085, 42.08225999969268], [-87.92101499989397, 42.08464599982281], [-87.92113999945033, 42.08635100003338], [-87.92346700056228, 42.08636200044215], [-87.92347299973645, 42.08578899960258], [-87.92532099981537, 42.08564400000213], [-87.92754600036169, 42.08576600024865], [-87.92714100026119, 42.086778000386545], [-87.92716799969816, 42.095237000437336], [-87.91305100033478, 42.095180000125346], [-87.9156909996729, 42.099732000282344], [-87.91587199981029, 42.10064499961736], [-87.91739500034474, 42.10064699992782], [-87.91738600008605, 42.10245099975092], [-87.92224800018452, 42.10247300016123], [-87.92223699997429, 42.10429000042243], [-87.9270820000016, 42.10432699997641], [-87.92700899963799, 42.12424799997761], [-87.92176200048881, 42.12423000009728], [-87.9344049996895, 42.153106000352295], [-87.92263200032994, 42.153028000014324], [-87.91442500011712, 42.153168000328186], [-87.86335067067475, 42.15292124640549], [-87.82466399994678, 42.15269300003595], [-87.81838600013576, 42.152518000449696], [-87.79998700007579, 42.152556000165205], [-87.75893494125475, 42.15225265759097], [-87.75803771452286, 42.15122107138863], [-87.75741152192644, 42.15026080212412], [-87.75744500044829, 42.15004000035145], [-87.75675100003933, 42.149258999665996], [-87.7568710002927, 42.14920400007563], [-87.75675999996758, 42.14885800044462], [-87.75508294315757, 42.14670062895631], [-87.75344499980555, 42.143903999741724], [-87.75273000031297, 42.143273000422916], [-87.75286999991745, 42.14315699997197], [-87.75243319777871, 42.1425259446586], [-87.7511122119699, 42.140819263606176], [-87.74810739317162, 42.13772157717125], [-87.74864399952514, 42.13747900028421], [-87.74838609987414, 42.136857973236495], [-87.74683404166564, 42.134996043014375], [-87.74555962276149, 42.133888650819074], [-87.74568300058952, 42.13375899992063], [-87.74550832211055, 42.133535215292675], [-87.74444010784133, 42.132600695865], [-87.744333242295, 42.132286101727445], [-87.74375204587568, 42.1317493889921], [-87.74364828688708, 42.13140995546099], [-87.74285769159657, 42.13053174348373], [-87.7429169460637, 42.13036890168911], [-87.74250534097867, 42.129845236144895], [-87.74250912651425, 42.129624518274554], [-87.74186568368584, 42.12882426692094], [-87.74137545832465, 42.12765388259535], [-87.73902368982792, 42.12482456651938], [-87.73845639322721, 42.12405082300561], [-87.73845285630648, 42.12373934881125], [-87.73755603288161, 42.12280974434915], [-87.73769556554741, 42.122732782367386], [-87.73741074084414, 42.122298759250484], [-87.73598999986719, 42.120905999724414], [-87.73621800033416, 42.12078499975855], [-87.73560600008211, 42.12017099956758], [-87.7344486832104, 42.11938712835393], [-87.73453500037715, 42.11930399990691], [-87.73191738907728, 42.117508542646945], [-87.73055100014389, 42.116378999725406], [-87.73030695277296, 42.11633083311135], [-87.73027923126999, 42.11616849196508], [-87.73062753372155, 42.11597308482032], [-87.7305473066269, 42.11578572392552], [-87.7306584719715, 42.115722498687454], [-87.7305328400678, 42.115610363811406], [-87.73027702619025, 42.115817568245795], [-87.7304989994949, 42.11549500001522], [-87.730233000465, 42.115193000048144], [-87.73001199968353, 42.11525900016527], [-87.73009300000616, 42.11502899997044], [-87.7298322825687, 42.11504311608714], [-87.73055699944925, 42.114676999677144], [-87.72943683648958, 42.113376363640405], [-87.72954600057876, 42.113255999997186], [-87.72834903489525, 42.11216824136687], [-87.72783657839192, 42.11127585931558], [-87.72708608456219, 42.110652410237215], [-87.72701231491266, 42.1103213514109], [-87.72635099969028, 42.1096940003395], [-87.72644650133084, 42.10960866034649], [-87.72581868617337, 42.108829432325585], [-87.72462173155718, 42.10788356668414], [-87.72474747857903, 42.10773981995841], [-87.72267341209505, 42.10603464037689], [-87.72173775666312, 42.104942628238696], [-87.7190549994855, 42.10256999978084], [-87.71873030661646, 42.102080543860374], [-87.7171889996772, 42.100972999888036], [-87.71712191197084, 42.1007427235488], [-87.71542909027461, 42.09923703611757], [-87.71476539338917, 42.09838242437966], [-87.70971483005953, 42.094602134029266], [-87.70814877993412, 42.09368118411791], [-87.70766287234076, 42.09312215761544], [-87.7071667875571, 42.09294280034806], [-87.70688046227255, 42.09246100927523], [-87.70574157866758, 42.09152349145433], [-87.70442247320723, 42.090652543758736], [-87.70402598309896, 42.090463772940346], [-87.70388867105983, 42.090563858973034], [-87.70348100059736, 42.090084000000665], [-87.70258199956685, 42.08951299991515], [-87.70218400058879, 42.089436000420335], [-87.70023000003242, 42.08838800034751], [-87.70022300054205, 42.088052999803466], [-87.69845300017232, 42.086928000381995], [-87.69824823655011, 42.08704990186485], [-87.69762389344037, 42.08648307796387], [-87.69788208839799, 42.08631369313037], [-87.69667018519876, 42.08537945072007], [-87.69119304502807, 42.082603073320776], [-87.68416417903555, 42.079648550291765], [-87.68162773081936, 42.07837426234337], [-87.67993821077775, 42.078732461858344], [-87.68131164964923, 42.07839613517859], [-87.68083099980466, 42.07750699969898], [-87.67983916219488, 42.07749899987658], [-87.67934300053993, 42.077205000323005], [-87.67985099962058, 42.07747999960283], [-87.68152283808384, 42.07737548043453], [-87.68157614443182, 42.07774556062623], [-87.68326139330881, 42.07737848514504], [-87.6837806623159, 42.077162238470684], [-87.68367656541123, 42.077075891911676], [-87.68508254300599, 42.075735777203136], [-87.68475344666038, 42.075499632487855], [-87.68406349596509, 42.076065823361624], [-87.68351876485568, 42.075754369239725], [-87.68243134083588, 42.076558077835145], [-87.68218653722505, 42.07717581126225], [-87.68223921903636, 42.07688525934507], [-87.68153256130061, 42.07673992431402], [-87.68016880184446, 42.07691774433236], [-87.68144604102574, 42.07669106456982], [-87.68187799946534, 42.07671099971509], [-87.68218000045253, 42.07542700025317], [-87.6817048002215, 42.0743064928131], [-87.68025188441092, 42.07263149990158], [-87.67757056452247, 42.068424512088264], [-87.6774659639951, 42.068031505201375], [-87.6769729917284, 42.06754738082443], [-87.67705009630015, 42.06742163131515], [-87.67592546562229, 42.06648218376855], [-87.67540900018732, 42.06486300023002], [-87.67464256455102, 42.06443519849588], [-87.67413742340544, 42.063915713104116], [-87.67422141310233, 42.0637951430504], [-87.67363978349897, 42.062814681773666], [-87.67351039436022, 42.06186534389045], [-87.67153500008426, 42.059856000147576], [-87.67127700016285, 42.059729999670814], [-87.67078145689753, 42.06002097969609], [-87.66957248016587, 42.05968881327789], [-87.6700990609361, 42.05747732589615], [-87.67017730113572, 42.05588547765146], [-87.66981417205167, 42.05376110088679], [-87.66931900010272, 42.05232300005053], [-87.6694959994227, 42.05208199963391], [-87.67014780491398, 42.05196302891614], [-87.67037699959462, 42.05227299978745], [-87.67104200041871, 42.05234100010281], [-87.67113100043906, 42.050544999756504], [-87.67121300021154, 42.050719999765306], [-87.67206700054442, 42.05069800040046], [-87.67261999990545, 42.04973799964639], [-87.67264899967299, 42.0490790000889], [-87.67221500037354, 42.04822799988224], [-87.6731730003424, 42.04793699997926], [-87.67286639294652, 42.046940592865184], [-87.67208299972017, 42.04547199987163], [-87.67225644031521, 42.04509266068209], [-87.6718370980458, 42.04337273829216], [-87.67035204345117, 42.04178318315709], [-87.66981883252473, 42.04137156631175], [-87.66937299955464, 42.04126599998708], [-87.6691167352956, 42.03953864149699], [-87.66954091730145, 42.03898150201081], [-87.66959003372266, 42.037535944167324], [-87.67001460590228, 42.03737101718641], [-87.67004500051407, 42.03692900043592], [-87.66938389831178, 42.035544206157134], [-87.66964700043519, 42.0354739995737], [-87.66950020557356, 42.035187934693234], [-87.66969763700972, 42.034754326765764], [-87.66945216810292, 42.034731642611725], [-87.66940469634999, 42.034385939714525], [-87.66958900040211, 42.034369999588435], [-87.66964849311302, 42.034083091990404], [-87.66929400020338, 42.033810000195885], [-87.66849299989545, 42.028308999978826], [-87.66697600018487, 42.026854000138684], [-87.66722700050853, 42.02670599970717], [-87.66640999999083, 42.02569500013299], [-87.66509046200704, 42.023198976901426], [-87.66526722063932, 42.02261789202356], [-87.66479423296231, 42.022225796041816], [-87.6646452272034, 42.02161058994089], [-87.66418573668528, 42.02125220055147], [-87.66404642117543, 42.02131569538999], [-87.6637900004685, 42.0203799998825], [-87.66407699981974, 42.020160999973164], [-87.6639279410826, 42.01960282046244], [-87.66368000033697, 42.019398000156954], [-87.66398038849596, 42.019075895640704], [-87.66328239141855, 42.018433799105814], [-87.66341188369388, 42.018148816913005], [-87.66314310719461, 42.017723274768315], [-87.66314300051637, 42.016915999728255], [-87.66281200049748, 42.016619999658545], [-87.66267300055645, 42.015818000090334], [-87.66254225232328, 42.01578309234302], [-87.66155400024695, 42.013538999865396], [-87.66160872362826, 42.01329240366733], [-87.66119058794295, 42.01277027662589], [-87.66101444797762, 42.012025912570195], [-87.66014742967414, 42.011239765083644], [-87.66027803217018, 42.01115511843641], [-87.66012025813893, 42.010981314530866], [-87.6592164631756, 42.01023988101755], [-87.65895292987729, 42.009759813418164], [-87.65664271615034, 42.00758242830172], [-87.6553483135586, 42.00668910739226], [-87.65584447726609, 42.00630716213069], [-87.65739423743109, 42.006279597825156], [-87.65742149079324, 42.00561635376917], [-87.65731181943316, 42.00507167335554], [-87.65682290319943, 42.004250342079175], [-87.65728688134075, 42.004212250530244], [-87.65723746572915, 42.00371080530342], [-87.65686513665251, 42.002520722565755], [-87.65619299951821, 42.001267000092454], [-87.65634099996578, 42.00103699983945], [-87.6558700000336, 42.00003200037198], [-87.6558130004592, 41.99939399984972], [-87.65512900050388, 41.998728999763124], [-87.65499699967556, 41.99829600016736], [-87.65512899968647, 41.99830099993454], [-87.65512200047368, 41.99815799996219], [-87.65473299941223, 41.99815300002559], [-87.65472500012147, 41.997284000037254], [-87.65451299992563, 41.99727800006381], [-87.6544599997408, 41.99648900029001], [-87.65471799989744, 41.99636799996887], [-87.65483599991957, 41.99546299964013], [-87.654681000113, 41.99531400005604], [-87.6547410000943, 41.99456800043913], [-87.65447600018926, 41.99439199958501], [-87.65443200044741, 41.99409500005587], [-87.65480000043308, 41.993183999586684], [-87.65474899940038, 41.99284900019729], [-87.65424100025753, 41.99256300014432], [-87.6544132107159, 41.99099334310997], [-87.65419772645892, 41.98946389398425], [-87.65430782210655, 41.98840631794902], [-87.65354243704641, 41.987569608555404], [-87.65083022031993, 41.98566741252565], [-87.65012300027193, 41.98494400036723], [-87.65047800029987, 41.984124000100124], [-87.65072299948712, 41.982925000164315], [-87.65067600037305, 41.980683999855636], [-87.65022600019272, 41.97972100005725], [-87.65047501443915, 41.9794573960468], [-87.64877422227976, 41.97815304333589], [-87.64860379702883, 41.97783986876049], [-87.64738435145888, 41.977764977938456], [-87.64648599946825, 41.977132999752946], [-87.64631100055199, 41.973580999556106], [-87.64610267569005, 41.97273546268083], [-87.64502766691929, 41.97079882052976], [-87.64397295528185, 41.96954250278024], [-87.6426518911035, 41.9683368837939], [-87.643012571381, 41.96849428933927], [-87.64327200633953, 41.968305810740624], [-87.64286953912338, 41.968033426923576], [-87.64258263534477, 41.96827829878968], [-87.64049600027752, 41.96687499961387], [-87.63920199945532, 41.96620499961487], [-87.63643599998373, 41.96552299960524], [-87.6327613958309, 41.965302955304814], [-87.63199475826409, 41.96506826066882], [-87.63197099974475, 41.96524099996157], [-87.63139099997831, 41.96313199998585], [-87.63146500060375, 41.962923999580646], [-87.63183300027349, 41.96257800026722], [-87.63443841894423, 41.96142308380663], [-87.63583780106406, 41.96016581859162], [-87.63652899988344, 41.959747000263], [-87.63752900028798, 41.959494999724996], [-87.63879644351911, 41.95954641583444], [-87.64047254811544, 41.9598844843793], [-87.64082701806426, 41.96012707912955], [-87.64091039414159, 41.960449339500684], [-87.64070150303866, 41.96076812267528], [-87.6403900004856, 41.960857999873724], [-87.63871128452297, 41.96027826628], [-87.63703119252274, 41.96060219331537], [-87.63606583446686, 41.961170899333766], [-87.63539558321662, 41.96194378797089], [-87.63537374188155, 41.96242903358883], [-87.63572622828984, 41.962768370326145], [-87.63684603264242, 41.96287567017746], [-87.64042599940875, 41.9624550000828], [-87.64141099947473, 41.96231299985303], [-87.64203700014507, 41.96198900032495], [-87.64232400049644, 41.961203999916314], [-87.64153799958451, 41.960139000321], [-87.64174502670929, 41.95836432295628], [-87.64139400056662, 41.95594999958882], [-87.63992499939529, 41.951771000188366], [-87.63774399994875, 41.947295000197165], [-87.63601799986827, 41.94522999998488], [-87.63375400035142, 41.94313700030508], [-87.63329899986886, 41.94238000013552], [-87.63348533123629, 41.94217350718441], [-87.63401700014046, 41.94247800014056], [-87.63440300028832, 41.94156400012246], [-87.63398302099085, 41.94134531288054], [-87.63401399999427, 41.94035400031137], [-87.63362876552809, 41.939013732257116], [-87.63232716460043, 41.93700285500695], [-87.63191932646208, 41.93548212676241], [-87.63053400028467, 41.93351100020023], [-87.63074000002237, 41.93309999975897], [-87.63138363611861, 41.93296995447563], [-87.63142148387938, 41.932660770478606], [-87.63178569607011, 41.932581393917424], [-87.63179724936845, 41.93244397386489], [-87.63125443367416, 41.932394248347144], [-87.6312019510933, 41.93251534172832], [-87.6312384390413, 41.93238660395784], [-87.6308550377067, 41.93203471655118], [-87.63114824139345, 41.93055771398786], [-87.63107763368416, 41.92907986322294], [-87.6307342514005, 41.92818075097657], [-87.62986300054476, 41.927148000437995], [-87.62959900044591, 41.92659103110044], [-87.62970619238264, 41.92609227770799], [-87.62987632402756, 41.926160210419596], [-87.63027496940005, 41.92574758852518], [-87.63008016184989, 41.92403673707064], [-87.62992105087746, 41.923510252123336], [-87.62958136111436, 41.92319876286574], [-87.62900341671879, 41.922749963599095], [-87.62867599947256, 41.92293600021582], [-87.62948558484011, 41.92242670052764], [-87.62854499979191, 41.92100299962086], [-87.62893369952658, 41.92082068940979], [-87.62895700003308, 41.92065799973276], [-87.6280610002243, 41.9193999998986], [-87.6285099994642, 41.91915800011814], [-87.62747400001352, 41.917873000166786], [-87.62790909921566, 41.91760022390708], [-87.62671285822046, 41.916442361570965], [-87.62681259216903, 41.916285864180196], [-87.62628796740088, 41.91575779920985], [-87.62412738230645, 41.91424064193778], [-87.62326924942823, 41.91380724188235], [-87.62173201480708, 41.913528442543274], [-87.62061722416864, 41.91379286964905], [-87.62048654257038, 41.913609901768616], [-87.62057231799908, 41.91337031759621], [-87.62020099972142, 41.91395609918777], [-87.62041400037471, 41.913477000415845], [-87.62070354988182, 41.91321643205638], [-87.62293416714489, 41.912673512909706], [-87.62466288790017, 41.911416362702276], [-87.62470327303699, 41.9107957325065], [-87.62506088693009, 41.910350632389274], [-87.62526999981857, 41.90958699958439], [-87.6241619997909, 41.90457800007793], [-87.6237225823619, 41.90450856601421], [-87.62357267419233, 41.90407738762795], [-87.62372268118926, 41.90404916002638], [-87.62259116371064, 41.90318801451302], [-87.62192940027165, 41.90236922804287], [-87.6218682476531, 41.902045716500744], [-87.61987596470618, 41.90154625971487], [-87.61923490696428, 41.90109873299489], [-87.61631400009726, 41.89676899965611]]]}}, {"type": "Feature", "properties": {"district": 3}, "geometry": {"type": "Polygon", "coordinates": [[[-87.61631400009726, 41.89676899965611], [-87.6136720001667, 41.89309799984611], [-87.61254299997235, 41.89311900041537], [-87.61202997486618, 41.89332696237641], [-87.61019025219863, 41.89619868630036], [-87.60236899984002, 41.89633499977601], [-87.60235132549374, 41.89325771467652], [-87.6098223424466, 41.89314567905845], [-87.60979605718936, 41.89222070877379], [-87.60236691544718, 41.892333764812506], [-87.60236999942991, 41.892150999645274], [-87.59852013416993, 41.892191881973034], [-87.5985649593031, 41.891434686633374], [-87.60090600003545, 41.891375999698354], [-87.60092267726155, 41.89113493702491], [-87.60953561163677, 41.891012978106], [-87.60950500032621, 41.88924100026703], [-87.61274200025264, 41.889045000371866], [-87.61272500026317, 41.885664999949434], [-87.61364600041804, 41.88573599975269], [-87.6135800004045, 41.885183000231805], [-87.61406199952839, 41.885203999971786], [-87.61435799956534, 41.88438099959747], [-87.61272600026237, 41.884379999750045], [-87.61285090130967, 41.883436740651135], [-87.61386080758463, 41.882696638550755], [-87.61599537368082, 41.88236147587792], [-87.61649671107222, 41.88177939993779], [-87.61649758145218, 41.881413732340974], [-87.61575347756913, 41.88141663450698], [-87.61572212663509, 41.88056743606023], [-87.61647778336975, 41.88055671651862], [-87.61618314245796, 41.87566773118463], [-87.61621199166926, 41.86889854322316], [-87.61535264460329, 41.86830418476225], [-87.61380516297953, 41.86850683285334], [-87.61277343304205, 41.868308269944215], [-87.61246415154511, 41.86801853115327], [-87.61233265159193, 41.86763281940906], [-87.61268763740787, 41.86675311567701], [-87.60774851677023, 41.86685854011802], [-87.60731895542654, 41.86714363406158], [-87.60675934619933, 41.867241626566994], [-87.60613365069071, 41.86709668542081], [-87.60567915767584, 41.86666569859366], [-87.60565691921211, 41.86611740249041], [-87.6060510277107, 41.86568081113111], [-87.6060454779206, 41.864793703075655], [-87.60629245891195, 41.8647853108915], [-87.60656130076221, 41.86519796379774], [-87.6068067553421, 41.86520260680894], [-87.60735773339492, 41.86481194822675], [-87.6075794992476, 41.864274110554234], [-87.60695487245324, 41.86237456616939], [-87.6060210971707, 41.862005388926185], [-87.60596444307575, 41.86008027909076], [-87.60707261527503, 41.85995831173167], [-87.60651089946606, 41.8533586104421], [-87.60900428995139, 41.853181232477944], [-87.60958827069119, 41.8533931320574], [-87.60989739782059, 41.85377035384343], [-87.60933538718707, 41.85681705462942], [-87.60992472305942, 41.85765639862122], [-87.60988515786381, 41.858642703311965], [-87.6104763190403, 41.85928068769558], [-87.61036283243594, 41.859863817958306], [-87.61046077770874, 41.860130629914096], [-87.61066825443865, 41.86020601944893], [-87.61067472335684, 41.86065097455063], [-87.61034807624297, 41.86084822223057], [-87.61036116586206, 41.8613964639915], [-87.60989747517776, 41.862108771888245], [-87.60960523352647, 41.86340529852797], [-87.60995527898415, 41.864634186222396], [-87.6104477707562, 41.86531888954755], [-87.61048017608898, 41.86586451091407], [-87.61266895538202, 41.86584259678942], [-87.61265004531923, 41.865278877383226], [-87.61313065462517, 41.86444866956996], [-87.61344011736128, 41.863370745285344], [-87.61330999817362, 41.86249382503921], [-87.61256129273465, 41.86137290794305], [-87.61254817354134, 41.86082466081349], [-87.61220294399237, 41.86063451281632], [-87.61239332074766, 41.860353733206544], [-87.61215020716402, 41.860345691956645], [-87.61244285293299, 41.85998768642525], [-87.61220089309828, 41.85926511588681], [-87.6121869741562, 41.858584459014246], [-87.61272453491856, 41.85835868047174], [-87.61304173732331, 41.85761114879614], [-87.61285255363666, 41.85635584746342], [-87.61247610481077, 41.85584271039376], [-87.61116153125204, 41.85486400734646], [-87.61071683903558, 41.853077785476586], [-87.60922170946198, 41.850908648077585], [-87.60954350031056, 41.84869605376035], [-87.60948948199659, 41.84807414766613], [-87.60853789701457, 41.84657664310632], [-87.60840977690833, 41.84614086968534], [-87.60850498925093, 41.84567185954581], [-87.60914856369165, 41.84466156950195], [-87.609174311222, 41.84412763341819], [-87.6089421361642, 41.84323668643401], [-87.6081767701298, 41.84227787834414], [-87.60811009939145, 41.8412751194831], [-87.60721099156922, 41.83965169439498], [-87.60658429479355, 41.83921310841092], [-87.60614633750136, 41.83867555687947], [-87.60617154933351, 41.83734028494807], [-87.60595103415056, 41.83651972637149], [-87.60544188325491, 41.83566886499018], [-87.60463481407675, 41.834920740853], [-87.60510201714098, 41.83445272263912], [-87.60483878783559, 41.83343635426437], [-87.6043463501664, 41.83301644755869], [-87.60325033623309, 41.8328355733249], [-87.60280248760131, 41.83232778139848], [-87.6027584705152, 41.83123699723307], [-87.60237337191693, 41.83045586459356], [-87.60171443955447, 41.82983832380585], [-87.60187246156066, 41.82945410392566], [-87.6016927532408, 41.82880154163356], [-87.60078409355273, 41.827120376575955], [-87.60038953586428, 41.826809812696986], [-87.59904120424652, 41.82632507354404], [-87.59848493063399, 41.82547937187492], [-87.59835940444871, 41.824264565296396], [-87.59759824811557, 41.82353143298754], [-87.59727822525716, 41.8230031749448], [-87.59727117655437, 41.82261789495313], [-87.59683978130435, 41.82196474309124], [-87.59606317712998, 41.82114231459507], [-87.59564563539149, 41.82032320920325], [-87.59466513878084, 41.819569094446614], [-87.59453832018342, 41.819192319209904], [-87.59385548138359, 41.819034241091195], [-87.5926905987018, 41.81824736855871], [-87.59232717687804, 41.81771160741285], [-87.59228146734908, 41.81670416292373], [-87.59171187161186, 41.81603431738668], [-87.59145595930097, 41.815958564275036], [-87.59089103119173, 41.815004367543004], [-87.59045860428692, 41.814648938112065], [-87.59034667296062, 41.81437550276283], [-87.59051709354411, 41.81434882196472], [-87.59013346477049, 41.8136204749484], [-87.58912986344718, 41.812816766055136], [-87.58862631625027, 41.81219055047168], [-87.58734909705052, 41.81185432760015], [-87.58693422905344, 41.811174474829414], [-87.5870367641865, 41.81063726917509], [-87.58692462142497, 41.81010689331845], [-87.58515769508621, 41.807215291704786], [-87.58126928853018, 41.80431079857112], [-87.58066625703246, 41.804205659386184], [-87.58004568827985, 41.8038362651504], [-87.58003028383115, 41.80354663823567], [-87.58072199326051, 41.80226308025861], [-87.58096429737789, 41.80106815990569], [-87.58073154540384, 41.7997627631571], [-87.58002132293818, 41.79844085179983], [-87.57821034135448, 41.79701291414654], [-87.57731642191887, 41.7968567882751], [-87.57613807909784, 41.797031175695494], [-87.57527206924651, 41.79660833913353], [-87.57516524278802, 41.79618157941924], [-87.57544353194848, 41.795439716764655], [-87.57616601701079, 41.795085666395856], [-87.57782965910943, 41.794920982622], [-87.5789392707704, 41.79427239781393], [-87.57957691569833, 41.79329309682898], [-87.57974942136512, 41.792262727746], [-87.57837416947832, 41.790045234723884], [-87.57632015420256, 41.78857004103276], [-87.57766696319821, 41.78836211842207], [-87.57763870917192, 41.78815302356288], [-87.57714975112712, 41.78818273197585], [-87.57733018435515, 41.78757229051773], [-87.57724167759936, 41.786483945841546], [-87.5760993644092, 41.783651523810946], [-87.57420710295551, 41.7826281096714], [-87.57230393878216, 41.781834763130256], [-87.56998769011145, 41.781290432261365], [-87.56915581787874, 41.78148729868907], [-87.5691161087615, 41.78135804708858], [-87.57307978423196, 41.78025062149345], [-87.57295420571933, 41.77982373449856], [-87.57411030693999, 41.77952779638529], [-87.57466057578569, 41.77918976863162], [-87.57527972214112, 41.77786699289745], [-87.57519089267852, 41.77700538640965], [-87.57460745254531, 41.776154238351545], [-87.57469696774118, 41.775985709478014], [-87.57508768358622, 41.7759292346116], [-87.57504898199889, 41.77578529417469], [-87.57347583369214, 41.77550733414407], [-87.57336285140985, 41.77533836802724], [-87.57321597886732, 41.77558622934438], [-87.57193627409416, 41.775877916497855], [-87.57177300362122, 41.776663756380174], [-87.57231497237618, 41.777335928036614], [-87.57264631270043, 41.777335031533866], [-87.57336076656073, 41.77830575529472], [-87.57337901910998, 41.77881733699103], [-87.57321373734086, 41.779191181846215], [-87.57266539356166, 41.77932750804844], [-87.57223806617871, 41.779227947291815], [-87.57182364404397, 41.77857959894481], [-87.569898365904, 41.7769977752333], [-87.56881288897279, 41.776403970091124], [-87.56682594234607, 41.77397026584637], [-87.56635818237793, 41.773729425879274], [-87.56593727468993, 41.773134185741085], [-87.56500093889261, 41.77253104761258], [-87.56358093314648, 41.77202584952339], [-87.56327587851118, 41.77044343965401], [-87.56233775179427, 41.76900085498575], [-87.56052679789893, 41.76839695554039], [-87.55953544597502, 41.76917926020176], [-87.55939196004574, 41.766782876464674], [-87.55956273511613, 41.7665655129917], [-87.56044305109612, 41.76625035347973], [-87.5606116333419, 41.76564225497568], [-87.56012200217724, 41.764940878298916], [-87.55984229257236, 41.76495820548871], [-87.55959001531984, 41.76471398308874], [-87.55951677838203, 41.76451727241298], [-87.5597423499861, 41.764391182150575], [-87.55960877277519, 41.764221165947745], [-87.55897890525283, 41.7637524472183], [-87.55845613255049, 41.76401752323993], [-87.55757263183163, 41.76311520633432], [-87.5577008072313, 41.76304883669065], [-87.55760242641308, 41.76281010191062], [-87.55563969719944, 41.76158900402081], [-87.55480225905144, 41.76177131874149], [-87.55403284585996, 41.76076134805272], [-87.55106896728435, 41.75952136416142], [-87.54865286186046, 41.75871693230536], [-87.54693690557937, 41.75877175246989], [-87.54550990625015, 41.759361601429895], [-87.54431939510107, 41.76016643429019], [-87.54385320225876, 41.76011177093912], [-87.54441697248558, 41.760615447892846], [-87.54649250339725, 41.76064648728687], [-87.5443067457185, 41.760638014688745], [-87.54256092103857, 41.75912797257712], [-87.54262708716192, 41.758738741716385], [-87.54164919732627, 41.757823983769], [-87.5411483668871, 41.75779412320932], [-87.54059884055906, 41.75729052474062], [-87.54396108340124, 41.75523452573186], [-87.5444130096013, 41.75413168073493], [-87.54349089972386, 41.75222046057916], [-87.54302692526107, 41.751915394339925], [-87.54043403809013, 41.751846071514045], [-87.53208222111833, 41.748591375746514], [-87.53094820486676, 41.74802602106564], [-87.53003492093607, 41.741760484534474], [-87.52984647051477, 41.74145636336287], [-87.52446228665455, 41.74146854003594], [-87.52988653940778, 41.74132868807244], [-87.53068695926326, 41.741116727597166], [-87.53985510866049, 41.7410130741623], [-87.53982985952803, 41.740496971104655], [-87.52985659955056, 41.740607410467724], [-87.52895538608657, 41.733768138787305], [-87.529494935874, 41.73236717095004], [-87.52911564374449, 41.73208151092389], [-87.52522181853168, 41.73152042608138], [-87.52468863373329, 41.731093366668496], [-87.52446693925567, 41.72189768603793], [-87.52500277796517, 41.72152274180696], [-87.52469982832947, 41.72125407237224], [-87.5248184480592, 41.721178743611205], [-87.52509295974308, 41.721415319173396], [-87.52540822776325, 41.720920127443655], [-87.52508129019745, 41.72084819690944], [-87.52548488004678, 41.72072239213376], [-87.52560859615346, 41.71943549475956], [-87.52529401110935, 41.71848718356679], [-87.52490528101366, 41.71805015929612], [-87.52450497953592, 41.71798799669243], [-87.52446835882331, 41.717403200758255], [-87.52581259464806, 41.71733066636806], [-87.52642103513838, 41.717114368712494], [-87.52660494593455, 41.71723607008366], [-87.52651893338057, 41.71708452841851], [-87.5267911387603, 41.716881988477866], [-87.52730143219807, 41.7168248485814], [-87.52819440949516, 41.716223926442936], [-87.52864129368155, 41.71574405774864], [-87.52870435837626, 41.7154230723227], [-87.5285262953749, 41.71479612403578], [-87.5277115852952, 41.71342203164166], [-87.5264325565618, 41.71231361962265], [-87.52840809905449, 41.71080300454665], [-87.52720228232445, 41.710030603607635], [-87.52664831689599, 41.70984936144863], [-87.52624262626645, 41.709819758455865], [-87.52589979504884, 41.71014460723546], [-87.52599748581609, 41.71034975011856], [-87.52575042174067, 41.71041112778317], [-87.52417410447906, 41.709417159007806], [-87.52437636139491, 41.709258801684236], [-87.52475996942384, 41.709333539702605], [-87.5255297450662, 41.70993687469576], [-87.5262200433734, 41.709539334453055], [-87.52576932676305, 41.709156425705494], [-87.52526087989708, 41.70947324693301], [-87.52513018478555, 41.70934437703282], [-87.52567866478273, 41.70908512253423], [-87.52537425994119, 41.70882707478306], [-87.52486202058634, 41.70915347628716], [-87.52478372884718, 41.70908088728696], [-87.52501928652075, 41.70891513793851], [-87.52492944343041, 41.708704911912136], [-87.52419098496277, 41.70823949236426], [-87.52452739938558, 41.702603366152246], [-87.52481299982712, 41.686937999858195], [-87.52486065290893, 41.66213344757622], [-87.52525198971304, 41.662138954807205], [-87.52510511875438, 41.63000263176941], [-87.52524578347804, 41.596455857367], [-87.5254330005091, 41.58673899976684], [-87.52530632987573, 41.580861479345295], [-87.52541799966392, 41.54291200041774], [-87.5256069999083, 41.52834400044134], [-87.52553800033965, 41.47524699998888], [-87.52570500030976, 41.47028300013423], [-87.64830120000335, 41.46975666945698], [-87.74196760235927, 41.46973170605631], [-87.79030299969239, 41.46992938509971], [-87.79032299967, 41.5384040000365], [-87.79036599968872, 41.53964999984634], [-87.79213208452849, 41.53831180635203], [-87.79277016665071, 41.55853800185373], [-87.83538549233383, 41.558057455412595], [-87.88180798278408, 41.55716166174576], [-87.90937800138528, 41.55688109488096], [-87.90938400024916, 41.56324400007455], [-87.9104294138016, 41.593392291764985], [-87.91035899952976, 41.599312000325305], [-87.91061135060399, 41.60149607534218], [-87.91193108959673, 41.64395520216234], [-88.02768800017617, 41.641506000250764], [-88.02897299606312, 41.685241847800825], [-88.0123921508094, 41.68555599945149], [-88.00828800032843, 41.685506999741065], [-88.00399899955106, 41.68572899999725], [-87.98215199953036, 41.68607799992022], [-87.98139633199182, 41.68664282465515], [-87.98014359525334, 41.68723506316936], [-87.97916600003684, 41.687332000098664], [-87.97797000016936, 41.68723100008982], [-87.97626400043927, 41.68668700022305], [-87.9752599998537, 41.686532999585445], [-87.97162600004289, 41.68725100033292], [-87.96933000056353, 41.68675999996201], [-87.96657609909073, 41.68662887196103], [-87.96081739589226, 41.68983534201775], [-87.95834131236745, 41.69098920337859], [-87.95565050793434, 41.69297003666586], [-87.95173644188158, 41.693796057572136], [-87.94836200041316, 41.69490200022461], [-87.94752600037604, 41.69531400025105], [-87.94358299972835, 41.69820900013178], [-87.94230500008634, 41.69891799991731], [-87.94224500045087, 41.70011500032317], [-87.94197100025107, 41.701244999879506], [-87.94218799967366, 41.702465000091415], [-87.94178300021274, 41.70303499963347], [-87.94084700035165, 41.70353500013867], [-87.93826200033335, 41.70448800033318], [-87.93696100044536, 41.70517599993759], [-87.93583399959769, 41.70609000040454], [-87.93500999948228, 41.707624999879606], [-87.93410400024464, 41.70854299998018], [-87.93028599961356, 41.710063999622], [-87.92711855444676, 41.71252991196285], [-87.924996150285, 41.71292827744624], [-87.92163143495961, 41.71603641325222], [-87.9203099778061, 41.716437176778], [-87.91828770791105, 41.71646797899528], [-87.91708500034879, 41.716139000081846], [-87.9162087074288, 41.71623119259265], [-87.91513199945652, 41.71658699991195], [-87.914264000059, 41.71659800961993], [-87.91436100017873, 41.711614000272746], [-87.91373400040663, 41.696428000245085], [-87.90075800000811, 41.69777900042027], [-87.89800999986464, 41.69792199990095], [-87.88190899993822, 41.697135999922295], [-87.87911200057503, 41.69672699968317], [-87.87534700020382, 41.69581499992336], [-87.87317699988277, 41.69558500008326], [-87.84600500040544, 41.69614599975673], [-87.84589899968005, 41.693353999784776], [-87.84549699954952, 41.691645000313315], [-87.84554099972081, 41.68907799961218], [-87.846379999883, 41.68501500029576], [-87.83636700016444, 41.68404400019649], [-87.83110299981323, 41.68312100019207], [-87.83070799946324, 41.6746049998835], [-87.83547799960974, 41.674504999953655], [-87.83549799954056, 41.67519400039731], [-87.83618200039534, 41.67517699980184], [-87.83616399962442, 41.674491000064826], [-87.8500279998582, 41.67420799998394], [-87.84991200055676, 41.67057299995389], [-87.85479100018546, 41.670546000230246], [-87.85450600030605, 41.65949000019844], [-87.85407599953322, 41.65228100042479], [-87.8409040003015, 41.65255799986012], [-87.83732900030179, 41.65994700040954], [-87.83504299940141, 41.660033000388864], [-87.83489200052095, 41.65460899992329], [-87.83678300019665, 41.65265399988361], [-87.83458999955111, 41.65270000015206], [-87.83467700004385, 41.65328500036493], [-87.8348810000641, 41.653437999813214], [-87.83488699951032, 41.654235999699544], [-87.82908400054518, 41.660121000117634], [-87.81879600031832, 41.66028499982292], [-87.81877899949423, 41.65981800019194], [-87.8172879995754, 41.659866000164506], [-87.81729999948352, 41.66032099981696], [-87.81468099949258, 41.66037799964157], [-87.81471699963289, 41.66155299958023], [-87.8138780005347, 41.66157500037821], [-87.81385000053906, 41.660394999642875], [-87.81062899945975, 41.66046999965713], [-87.81037899984786, 41.65717700039344], [-87.81552100052758, 41.65718399971378], [-87.81549499978227, 41.65643799990748], [-87.81415699982642, 41.65653600013914], [-87.81415600030785, 41.65494800026474], [-87.81120300050736, 41.654932999698254], [-87.81117000019897, 41.653935999749], [-87.80990400033258, 41.653978000341624], [-87.80987499966753, 41.6532140001964], [-87.81535699958604, 41.65310199988926], [-87.81503800040842, 41.648231000256345], [-87.81508499949992, 41.64578600024569], [-87.77701699983523, 41.64652099969515], [-87.77793299944311, 41.66843299985533], [-87.77371900014235, 41.66859300005514], [-87.77394900007394, 41.66921200003721], [-87.77657900034373, 41.67132500035319], [-87.77807200033735, 41.671851999932876], [-87.778571999427, 41.6829709997819], [-87.77316599956694, 41.68304899963992], [-87.77344400007206, 41.690346999818104], [-87.77147599948343, 41.69035800032463], [-87.77161300005473, 41.694102999919124], [-87.76916599979187, 41.694127000418035], [-87.76918300037424, 41.69460799955887], [-87.76857900011495, 41.694621000164354], [-87.76868299947093, 41.69735000034441], [-87.76928799973888, 41.697351000414976], [-87.76930499964607, 41.69779099995446], [-87.76871399986136, 41.6977920000513], [-87.7686950005309, 41.700896000324725], [-87.76065399945095, 41.69655099997498], [-87.7607409999155, 41.697887000270285], [-87.75951299967377, 41.69790000002015], [-87.75920500002496, 41.69041799969443], [-87.75937399940537, 41.69041500014888], [-87.75914100024994, 41.683380999684104], [-87.75405799969374, 41.68348300023062], [-87.7540520001765, 41.68333999969783], [-87.71151600057122, 41.6840929996909], [-87.7113259995023, 41.68180799982589], [-87.71159899987185, 41.68180299973842], [-87.71157599951893, 41.68135600044709], [-87.71139000019464, 41.681268000016615], [-87.71136000039319, 41.68043799990928], [-87.70528500025715, 41.68057900008402], [-87.70541699947543, 41.68418700031249], [-87.7005529995426, 41.68426299987783], [-87.70062400028448, 41.6861340002221], [-87.69939799995822, 41.68614899978258], [-87.69947299968925, 41.687933000423804], [-87.69571699991747, 41.68803200043259], [-87.6956260002938, 41.68433699979665], [-87.6858640004948, 41.684474999899486], [-87.68566300026991, 41.679491000081754], [-87.68576000048229, 41.678618999965714], [-87.68636300033619, 41.677205000153364], [-87.67322900012412, 41.67732199963339], [-87.67301600051302, 41.67912299965297], [-87.67371300050819, 41.6791730003513], [-87.67305300002948, 41.68460500035832], [-87.6718339994521, 41.6846270003904], [-87.67143200033922, 41.68791900039168], [-87.67016399970672, 41.68784000017884], [-87.66658900014143, 41.686698000226066], [-87.66407200026013, 41.69104899959039], [-87.6593219998036, 41.697844000418854], [-87.65723599998957, 41.70353600000354], [-87.6615929994232, 41.71398300003831], [-87.65976400058243, 41.71400400019422], [-87.66302900023712, 41.71838699984408], [-87.66345199976297, 41.72120099963244], [-87.66571699969984, 41.725612999571226], [-87.66743599999224, 41.72845099959944], [-87.66821600014728, 41.73017699979551], [-87.67309000030563, 41.735649999701224], [-87.74106700054034, 41.73452399992789], [-87.74093799986217, 41.73705699988631], [-87.74189399994154, 41.76410499981931], [-87.72340600039335, 41.764216999894835], [-87.72235499971646, 41.76409999962337], [-87.72219100016673, 41.75683800011305], [-87.71232300041427, 41.75690700024433], [-87.71281100035868, 41.77516699989318], [-87.70546600001902, 41.7752849999808], [-87.70545099957397, 41.7743800003294], [-87.70496600004289, 41.77438699960771], [-87.70303100013105, 41.77441900035521], [-87.70305200008166, 41.77532200017417], [-87.69817099993443, 41.77540000042489], [-87.6980829996062, 41.77174900031227], [-87.69216300048743, 41.771835000228364], [-87.69076899990704, 41.77186200010193], [-87.69081700009343, 41.77366099984027], [-87.68959300005454, 41.77367999994408], [-87.68964299959815, 41.77547899996212], [-87.6872089999079, 41.77556200010162], [-87.68710900008763, 41.77191900040614], [-87.68466400020546, 41.77195799972446], [-87.68471300019782, 41.77377800012886], [-87.68349400038197, 41.77378299981927], [-87.68374199942595, 41.78291099990383], [-87.67997000056324, 41.78282900028416], [-87.6801429995716, 41.79204299982947], [-87.68124299941985, 41.792042000324855], [-87.68125299981111, 41.79024299966409], [-87.6839380004001, 41.79021300030987], [-87.68404199974023, 41.793877000031344], [-87.68347800030325, 41.793853000105344], [-87.68360299968619, 41.798826999692956], [-87.67960499952288, 41.79885700002766], [-87.67964100023985, 41.801167999911016], [-87.675116999862, 41.80122599983239], [-87.67512500001058, 41.80168399968233], [-87.67634000028956, 41.801665999896095], [-87.67637099962008, 41.80303499976435], [-87.67697900050312, 41.803030999682235], [-87.67696799989704, 41.80257199971841], [-87.67910699957248, 41.80255299986695], [-87.67909700011936, 41.80299800020318], [-87.67937599946993, 41.803009999627534], [-87.67945200030834, 41.803733000003206], [-87.67947499957164, 41.80462500006841], [-87.67901499988999, 41.80482499988121], [-87.67948999963157, 41.808459000207534], [-87.67468699972405, 41.808509999965494], [-87.6746410001532, 41.806686000086536], [-87.6683219999841, 41.80674799983424], [-87.66735299966332, 41.80675900025249], [-87.66739500007455, 41.80858199995627], [-87.66497300027294, 41.80860399973585], [-87.66486699959587, 41.804963999771545], [-87.66244299939467, 41.804995000427006], [-87.6624369999222, 41.80477500021535], [-87.65515000015606, 41.804836999748495], [-87.65524599952582, 41.81237000036372], [-87.66506400046373, 41.81222200001333], [-87.66520000015247, 41.81822699990649], [-87.6611430001089, 41.818403000184034], [-87.66115199958388, 41.817158000193004], [-87.65537799966248, 41.81723100042717], [-87.65540599966853, 41.81859299991182], [-87.65586999941473, 41.82009799989346], [-87.65578400026023, 41.821240000052], [-87.65552100021452, 41.82185499997733], [-87.65553400048974, 41.82268500030062], [-87.65590199978354, 41.82314200002122], [-87.65597500013322, 41.82357499994985], [-87.65559099968249, 41.824241000446946], [-87.65559299961133, 41.82485099995158], [-87.65503800009442, 41.825195999770756], [-87.65082700051695, 41.82526000027888], [-87.65078700045127, 41.823392999635566], [-87.64592800025014, 41.823458999778246], [-87.64627799940482, 41.83804599998221], [-87.62978400001388, 41.8382799997145], [-87.63010900001247, 41.85211199990699], [-87.63026699953592, 41.852939000117466], [-87.63006799972696, 41.8529409995912], [-87.63043700014018, 41.86743199972073], [-87.64072200055595, 41.867241000412676], [-87.6407520003268, 41.86819499969563], [-87.6422220004883, 41.868173999887006], [-87.64218800037382, 41.86722000028651], [-87.68603800043732, 41.86661299988803], [-87.68598399953014, 41.86463800033995], [-87.68817099995594, 41.863873999576214], [-87.68890000010755, 41.86423899988574], [-87.69044499997763, 41.86656799988846], [-87.7031629995829, 41.86642999958835], [-87.70310599993839, 41.86459900000966], [-87.70336200035486, 41.864596000047925], [-87.70439099965567, 41.86458799958357], [-87.70444599986351, 41.86642200018042], [-87.70810199993429, 41.86637899987646], [-87.70799599962416, 41.86254899972597], [-87.717750000146, 41.86254599970419], [-87.71769699960086, 41.86077900013872], [-87.7213559994048, 41.860738000090585], [-87.72125500050088, 41.85890700035509], [-87.72004799961813, 41.85883500010251], [-87.71988900001149, 41.85287400038619], [-87.72336200016832, 41.851640999736844], [-87.73923200020513, 41.85135199964151], [-87.73942300018062, 41.851351000399745], [-87.73963900053285, 41.85503099955792], [-87.73993200018056, 41.865960000052205], [-87.80419900059374, 41.864979999919576], [-87.80379200028594, 41.85036899979783], [-87.8548880001625, 41.8493819996141], [-87.85496899993922, 41.85121299964483], [-87.85669600023591, 41.85116499982512], [-87.85705299950017, 41.8528770003944], [-87.8600419996149, 41.853633000231326], [-87.86039499941312, 41.8541440003099], [-87.86067500013893, 41.85538500027942], [-87.86068399971423, 41.856774000049455], [-87.86260000048969, 41.85816199984292], [-87.86252800000307, 41.85649699984271], [-87.86588500026, 41.85640600040434], [-87.86646800042426, 41.871088000447756], [-87.87787600021575, 41.870700000304964], [-87.88282500006443, 41.87088599971595], [-87.88311500047705, 41.87786100044236], [-87.89292000025348, 41.8775709999154], [-87.8929439999041, 41.880383999671224], [-87.89912900006078, 41.88097100014023], [-87.89937099983923, 41.88312200016396], [-87.89926600042041, 41.883320999949106], [-87.89678699976973, 41.885364000336594], [-87.89617699951876, 41.88537599988864], [-87.89620400022513, 41.886363000423664], [-87.89559099947645, 41.88638600023899], [-87.89574000025708, 41.88908999975286], [-87.89856300059921, 41.889146999708025], [-87.89846599988749, 41.8925089997234], [-87.8955109995582, 41.89265100021109], [-87.89304000021131, 41.89247999983049], [-87.88351800004776, 41.892406999851175], [-87.87848499955166, 41.8927440002432], [-87.86401299991549, 41.89292299985021], [-87.86394900026245, 41.89115500007347], [-87.84423600049716, 41.888953999843025], [-87.84459299952954, 41.89838999970665], [-87.83964300026956, 41.89833099964354], [-87.83420399953381, 41.898624000098835], [-87.83349599945618, 41.9015540000779], [-87.8323709999109, 41.903586000343786], [-87.83075500046417, 41.90479900012482], [-87.82785099994382, 41.905767000381935], [-87.82602400008521, 41.90670099973698], [-87.82479799966123, 41.907700000378725], [-87.82451099943539, 41.90856199981581], [-87.80802600049108, 41.90889600014995], [-87.76341999990599, 41.90940400002421], [-87.76336299945362, 41.907596000310306], [-87.7621200004303, 41.90761000041852], [-87.76206399947712, 41.9058020000155], [-87.76082000020963, 41.905814999751655], [-87.76087499965129, 41.907624999875296], [-87.75590200027295, 41.90768599993312], [-87.75592600049106, 41.908999999782495], [-87.75579599989116, 41.90950100009739], [-87.75103499969742, 41.909563000171296], [-87.7509950001049, 41.907743000266855], [-87.74854200005, 41.90776200004383], [-87.74850199964473, 41.90596100043732], [-87.74603600018713, 41.90598799981416], [-87.74161200059353, 41.906050000104166], [-87.74165699985254, 41.90775399994362], [-87.74138100038469, 41.909676000396296], [-87.7355020000695, 41.90975900011307], [-87.72640799963138, 41.906155999839136], [-87.7263929998247, 41.905629000282374], [-87.72576400028457, 41.9053560001184], [-87.7257449997798, 41.904445999571614], [-87.72392299966953, 41.90445700018211], [-87.72387799968413, 41.90314700014502], [-87.72144600006571, 41.90317400042064], [-87.72147799956122, 41.90420600029806], [-87.71977199987337, 41.90352299956898], [-87.71905600016426, 41.9045899999458], [-87.71911499990851, 41.906346999637385], [-87.72033499999226, 41.90633400043551], [-87.7204510003028, 41.909945999758335], [-87.72020199985319, 41.90995399977673], [-87.71779500011044, 41.906361999634285], [-87.71630699978043, 41.904565000323274], [-87.7141780005634, 41.90458599969761], [-87.71425499942066, 41.90684500024933], [-87.71669800048747, 41.90682200019084], [-87.71677699974421, 41.909419999645124], [-87.71656999962616, 41.910761999692525], [-87.71666000001828, 41.91368700039192], [-87.7045329999927, 41.913852999683996], [-87.7045309997779, 41.91064900038536], [-87.70339099987999, 41.91066399999317], [-87.70336899993187, 41.91017700038114], [-87.70186599950551, 41.91017199957098], [-87.70172599964542, 41.90923100022567], [-87.69901000027342, 41.9096330002736], [-87.69833000055952, 41.90948499974902], [-87.69775800004578, 41.90909000028777], [-87.6975429996305, 41.908710000355576], [-87.69743499971833, 41.90791499955899], [-87.69789899944712, 41.905650000370166], [-87.69748400021997, 41.90414800041015], [-87.69781199975193, 41.903629000316265], [-87.69825300022563, 41.90338499960036], [-87.69813199959108, 41.90291500024942], [-87.69687899978722, 41.902925000359105], [-87.696814999877, 41.90019899987424], [-87.6943490004289, 41.90021900034998], [-87.69428200018167, 41.89748600030775], [-87.691817999908, 41.897513000153836], [-87.69177300014522, 41.89570200032424], [-87.6893070001451, 41.89571600004275], [-87.68928000013557, 41.894800000141196], [-87.69174500010452, 41.894775000420196], [-87.69166800055504, 41.89233200033635], [-87.69667099972519, 41.89433300039586], [-87.69649899994685, 41.89231500040266], [-87.69658599964112, 41.88943799963214], [-87.69676399948119, 41.88830899988625], [-87.68662400032326, 41.888409999673065], [-87.68657899965521, 41.886628999918855], [-87.66702500037346, 41.88693799995987], [-87.66701199986191, 41.886507000140966], [-87.65683700005847, 41.88667600012188], [-87.65669000029018, 41.88165899972379], [-87.64853099985284, 41.88176199979157], [-87.6484920004408, 41.88047199959926], [-87.63379800006764, 41.88065999995561], [-87.63413300055103, 41.89398899986243], [-87.62678500014131, 41.89409500012633], [-87.62684999949667, 41.89669499977556], [-87.62561399978698, 41.896711999622234], [-87.626367999672, 41.89835500011361], [-87.62410300013485, 41.89838599969199], [-87.62424299997474, 41.89673400030968], [-87.61631400009726, 41.89676899965611]]]}}]}